NORAD_CAT_ID,OBJECT_NAME,OBJECT_TYPE,EPOCH,MEAN_MOTION,ECCENTRICITY,INCLINATION,RA_OF_ASC_NODE,ARG_OF_PERICENTER,MEAN_ANOMALY,BSTAR,MEAN_MOTION_DOT,MEAN_MOTION_DDOT,TLE_LINE0,TLE_LINE1,TLE_LINE2,SEMIMAJOR_AXIS,PERIOD,APOGEE,PERIGEE,DECAYED
53247.0,STARLINK-4061,PAYLOAD,2022-11-20 01:34:08,15.08837191,0.0001696999999999,53.2181,211.3919,51.4533,308.6612,-5.5562e-05,-1.172e-05,0.0,0 STARLINK-4061,1 53247U 22086F   22324.06537061 -.00001172  00000-0 -55562-4 0  9990,2 53247  53.2181 211.3919 0001697  51.4533 308.6612 15.08837191 18809,6917.889,95.438,540.928,538.58,0.0
53247.0,STARLINK-4061,PAYLOAD,2022-11-20 20:38:46,15.08831771,0.0001735,53.218,207.8235,49.2229,310.8913,-6.8338e-05,-1.375e-05,0.0,0 STARLINK-4061,1 53247U 22086F   22324.86025633 -.00001375  00000-0 -68338-4 0  9995,2 53247  53.2180 207.8235 0001735  49.2229 310.8913 15.08831771 19425,6917.906,95.438,540.971,538.57,0.0
53247.0,STARLINK-4061,PAYLOAD,2022-11-21 09:21:50,15.08843346,0.0001793,53.2179,205.4444,46.6928,313.4213,1.853e-05,7e-08,0.0,0 STARLINK-4061,1 53247U 22086F   22325.39016726  .00000007  00000-0  18530-4 0  9995,2 53247  53.2179 205.4444 0001793  46.6928 313.4213 15.08843346 19007,6917.87,95.437,540.976,538.495,0.0
53247.0,STARLINK-4061,PAYLOAD,2022-11-21 20:29:33,15.0883073,0.000191,53.218,203.364,47.1229,312.9924,-4.2865e-05,-9.7e-06,0.0,0 STARLINK-4061,1 53247U 22086F   22325.85385869 -.00000970  00000-0 -42865-4 0  9992,2 53247  53.2180 203.3640 0001910  47.1229 312.9924 15.08830730 19573,6917.909000000002,95.438,541.095,538.452,0.0
53247.0,STARLINK-4061,PAYLOAD,2022-11-22 01:15:42,15.08830113,0.0001973,53.2179,202.4718,46.3166,313.7989,3.9408e-05,3.39e-06,0.0,0 STARLINK-4061,1 53247U 22086F   22326.05257716  .00000339  00000-0  39408-4 0  9990,2 53247  53.2179 202.4718 0001973  46.3166 313.7989 15.08830113 19101,6917.911,95.438,541.141,538.411,0.0
53247.0,STARLINK-4061,PAYLOAD,2022-11-22 09:12:38,15.08832903,0.0001931,53.2181,200.9849,49.3925,310.7235,6.9323e-05,8.15e-06,0.0,0 STARLINK-4061,1 53247U 22086F   22326.38377606  .00000815  00000-0  69323-4 0  9995,2 53247  53.2181 200.9849 0001931  49.3925 310.7235 15.08832903 19652,6917.901999999999,95.438,541.1030000000002,538.431,0.0
53247.0,STARLINK-4061,PAYLOAD,2022-11-22 20:20:19,15.08840295,0.0001891,53.218,198.9031,48.7516,311.3639,5.9376e-05,6.57e-06,0.0,0 STARLINK-4061,1 53247U 22086F   22326.84745301  .00000657  00000-0  59376-4 0  9998,2 53247  53.2180 198.9031 0001891  48.7516 311.3639 15.08840295 19720,6917.879,95.438,541.053,538.436,0.0
53247.0,STARLINK-4061,PAYLOAD,2022-11-23 02:41:52,15.08843128,0.0001937,53.2178,197.7133,48.8826,311.2333,8.0823e-05,9.98e-06,0.0,0 STARLINK-4061,1 53247U 22086F   22327.11241030  .00000998  00000-0  80823-4 0  9998,2 53247  53.2178 197.7133 0001937  48.8826 311.2333 15.08843128 19260,6917.871,95.437,541.076,538.396,0.0
53247.0,STARLINK-4061,PAYLOAD,2022-11-23 09:03:25,15.0883525,0.0001977,53.2177,196.5239,48.4321,311.6841,1.0494000000000003e-05,-1.21e-06,0.0,0 STARLINK-4061,1 53247U 22086F   22327.37737767 -.00000121  00000-0  10494-4 0  9999,2 53247  53.2177 196.5239 0001977  48.4321 311.6841 15.08835250 19303,6917.895,95.438,541.128,538.3919999999998,0.0
53247.0,STARLINK-4061,PAYLOAD,2022-11-23 21:46:30,15.08833384,0.0001895,53.2171,194.1442,51.5867,308.5295,3.1727e-05,2.17e-06,0.0,0 STARLINK-4061,1 53247U 22086F   22327.90729886  .00000217  00000-0  31727-4 0  9998,2 53247  53.2171 194.1442 0001895  51.5867 308.5295 15.08833384 19883,6917.901,95.438,541.077,538.455,0.0
53247.0,STARLINK-4061,PAYLOAD,2022-11-24 02:32:40,15.08834514,0.000191,53.2171,193.2522,51.6419,308.4744,3.3684e-05,2.48e-06,0.0,0 STARLINK-4061,1 53247U 22086F   22328.10601884  .00000248  00000-0  33684-4 0  9996,2 53247  53.2171 193.2522 0001910  51.6419 308.4744 15.08834514 19912,6917.897,95.438,541.0830000000002,538.441,0.0
53247.0,STARLINK-4061,PAYLOAD,2022-11-24 21:37:17,15.088446,0.0001958,53.2167,189.6837,53.0421,307.075,3.5322e-05,2.74e-06,0.0,0 STARLINK-4061,1 53247U 22086F   22328.90089178  .00000274  00000-0  35322-4 0  9990,2 53247  53.2167 189.6837 0001958  53.0421 307.0750 15.08844600 19533,6917.866,95.437,541.086,538.377,0.0
53247.0,STARLINK-4061,PAYLOAD,2022-11-25 02:23:26,15.0884709,0.0001959,53.217,188.7919,52.3222,307.7947,1.5267e-05,-4.5e-07,0.0,0 STARLINK-4061,1 53247U 22086F   22329.09961005 -.00000045  00000-0  15267-4 0  9992,2 53247  53.2170 188.7919 0001959  52.3222 307.7947 15.08847090 20061,6917.859,95.437,541.0790000000002,538.369,0.0
53247.0,STARLINK-4061,PAYLOAD,2022-11-25 16:41:55,15.08835055,0.0002004,53.2165,186.1162,52.6563,307.4612,1.6116e-05,-3.2e-07,0.0,0 STARLINK-4061,1 53247U 22086F   22329.69577731 -.00000032  00000-0  16116-4 0  9997,2 53247  53.2165 186.1162 0002004  52.6563 307.4612 15.08835055 19657,6917.896,95.438,541.1469999999998,538.374,0.0
53247.0,STARLINK-4061,PAYLOAD,2022-11-25 21:28:04,15.088362900000002,0.0002004,53.2165,185.2241,53.1997,306.9179,2.4171e-05,9.6e-07,0.0,0 STARLINK-4061,1 53247U 22086F   22329.89449661  .00000096  00000-0  24171-4 0  9998,2 53247  53.2165 185.2241 0002004  53.1997 306.9179 15.08836290 20186,6917.892,95.438,541.143,538.37,0.0
53247.0,STARLINK-4061,PAYLOAD,2022-11-26 13:21:55,15.08843577,0.0001992,53.2171,182.2505,51.719,308.3981,3.4701e-05,2.64e-06,0.0,0 STARLINK-4061,1 53247U 22086F   22330.55689141  .00000264  00000-0  34701-4 0  9999,2 53247  53.2171 182.2505 0001992  51.7190 308.3981 15.08843577 20281,6917.869000000002,95.437,541.112,538.356,0.0
53247.0,STARLINK-4061,PAYLOAD,2022-11-26 16:32:41,15.08846548,0.0001992,53.2172,181.6558,51.539,308.578,5.6499e-06,-1.98e-06,0.0,0 STARLINK-4061,1 53247U 22086F   22330.68937041 -.00000198  00000-0  56499-5 0  9994,2 53247  53.2172 181.6558 0001992  51.5390 308.5780 15.08846548 19809,6917.86,95.437,541.1030000000002,538.347,0.0
53247.0,STARLINK-4061,PAYLOAD,2022-11-26 21:18:50,15.08848076,0.0001997,53.2172,180.7638,51.553,308.5641,1.8124e-05,0.0,0.0,0 STARLINK-4061,1 53247U 22086F   22330.88808806  .00000000  00000-0  18124-4 0  9995,2 53247  53.2172 180.7638 0001997  51.5530 308.5641 15.08848076 20333,6917.856,95.437,541.102,538.339,0.0
53247.0,STARLINK-4061,PAYLOAD,2022-11-27 00:29:37,15.08845954,0.0001969,53.2173,180.1693,49.9279,310.1886,5.0203e-06,-2.08e-06,0.0,0 STARLINK-4061,1 53247U 22086F   22331.02056909 -.00000208  00000-0  50203-5 0  9997,2 53247  53.2173 180.1693 0001969  49.9279 310.1886 15.08845954 20353,6917.861999999999,95.437,541.089,538.365,0.0
53247.0,STARLINK-4061,PAYLOAD,2022-11-27 16:23:29,15.08834729,0.0002011,53.2172,177.1959,51.5119,308.6053,-1.6122999999999998e-05,-5.45e-06,0.0,0 STARLINK-4061,1 53247U 22086F   22331.68297802 -.00000545  00000-0 -16123-4 0  9995,2 53247  53.2172 177.1959 0002011  51.5119 308.6053 15.08834729 20451,6917.897,95.438,541.153,538.37,0.0
53247.0,STARLINK-4061,PAYLOAD,2022-11-27 17:58:52,15.08834267,0.0002004,53.2172,176.8985,51.4171,308.7,-1.9215e-05,-5.94e-06,0.0,0 STARLINK-4061,1 53247U 22086F   22331.74921878 -.00000594  00000-0 -19215-4 0  9998,2 53247  53.2172 176.8985 0002004  51.4171 308.7000 15.08834267 19969,6917.898,95.438,541.149,538.377,0.0
53247.0,STARLINK-4061,PAYLOAD,2022-11-28 06:41:57,15.08838571,0.000201,53.2173,174.5197,51.596,308.5212,1.3465e-05,-7.4e-07,0.0,0 STARLINK-4061,1 53247U 22086F   22332.27913605 -.00000074  00000-0  13465-4 0  9999,2 53247  53.2173 174.5197 0002010  51.5960 308.5212 15.08838571 20545,6917.885,95.438,541.14,538.359,0.0
53247.0,STARLINK-4061,PAYLOAD,2022-11-29 01:46:34,15.08845748,0.0002037,53.2173,170.9513,52.1688,307.9488,1.2319e-05,-9.2e-07,0.0,0 STARLINK-4061,1 53247U 22086F   22333.07401052 -.00000092  00000-0  12319-4 0  9993,2 53247  53.2173 170.9513 0002037  52.1688 307.9488 15.08845748 20160,6917.863,95.437,541.137,538.319,0.0
53247.0,STARLINK-4061,PAYLOAD,2022-11-29 06:32:43,15.08842556,0.0002037,53.2175,170.0588,53.0763,307.0416,6.894300000000001e-05,8.09e-06,0.0,0 STARLINK-4061,1 53247U 22086F   22333.27273011  .00000809  00000-0  68943-4 0  9996,2 53247  53.2175 170.0588 0002037  53.0763 307.0416 15.08842556 20693,6917.873000000001,95.437,541.1469999999998,538.328,0.0
53247.0,STARLINK-4061,PAYLOAD,2022-11-29 19:15:49,15.08832554,0.0002011,53.2174,167.6799,52.8578,307.2597,-1.1608e-05,-4.73e-06,0.0,0 STARLINK-4061,1 53247U 22086F   22333.80265997 -.00000473  00000-0 -11608-4 0  9994,2 53247  53.2174 167.6799 0002011  52.8578 307.2597 15.08832554 20274,6917.903,95.438,541.159,538.377,0.0
53247.0,STARLINK-4061,PAYLOAD,2022-11-30 06:23:31,15.08833134,0.0001973,53.2175,165.5985,52.78100000000001,307.3362,-1.924e-05,-5.94e-06,0.0,0 STARLINK-4061,1 53247U 22086F   22334.26634153 -.00000594  00000-0 -19240-4 0  9993,2 53247  53.2175 165.5985 0001973  52.7810 307.3362 15.08833134 20842,6917.901,95.438,541.131,538.401,0.0
53247.0,STARLINK-4061,PAYLOAD,2022-11-30 19:06:36,15.08836329,0.0001992,53.2174,163.2195,53.3799,306.7376,-1.0345e-05,-4.53e-06,0.0,0 STARLINK-4061,1 53247U 22086F   22334.79626048 -.00000453  00000-0 -10345-4 0  9996,2 53247  53.2174 163.2195 0001992  53.3799 306.7376 15.08836329 20929,6917.892,95.438,541.135,538.379,0.0
53247.0,STARLINK-4061,PAYLOAD,2022-11-30 22:17:23,15.08838131,0.0001984,53.2174,162.6247,53.7685,306.349,-2.7035e-05,-7.18e-06,0.0,0 STARLINK-4061,1 53247U 22086F   22334.92874012 -.00000718  00000-0 -27035-4 0  9995,2 53247  53.2174 162.6247 0001984  53.7685 306.3490 15.08838131 20442,6917.886,95.438,541.124,538.379,0.0
53247.0,STARLINK-4061,PAYLOAD,2022-12-01 12:35:51,15.08839723,0.0002003,53.2174,159.9485,53.5799,306.5377,-9.5042e-06,-4.39e-06,0.0,0 STARLINK-4061,1 53247U 22086F   22335.52489889 -.00000439  00000-0 -95042-5 0  9990,2 53247  53.2174 159.9485 0002003  53.5799 306.5377 15.08839723 21032,6917.880999999999,95.438,541.132,538.361,0.0
